[{"OBJECT_NAME":"STARLINK-4767","OBJECT_ID":"2022-114AJ","EPOCH":"2026-03-09T22:22:24.080160","MEAN_MOTION":15.08837647,"ECCENTRICITY":0.00012828,"INCLINATION":53.2183,"RA_OF_ASC_NODE":292.6511,"ARG_OF_PERICENTER":88.1371,"MEAN_ANOMALY":271.9768,"EPHEMERIS_TYPE":0,"CLASSIFICATION_TYPE":"U","NORAD_CAT_ID":53850,"ELEMENT_SET_NO":999,"REV_AT_EPOCH":19301,"BSTAR":2.5662397e-5,"MEAN_MOTION_DOT":1.21e-6,"MEAN_MOTION_DDOT":0},{"OBJECT_NAME":"SEDSAT 1 (SO-33)","OBJECT_ID":"1998-061B","EPOCH":"2026-03-09T01:12:01.146528","MEAN_MOTION":14.33274004,"ECCENTRICITY":0.03368459,"INCLINATION":31.4338,"RA_OF_ASC_NODE":325.4833,"ARG_OF_PERICENTER":271.633,"MEAN_ANOMALY":84.5745,"EPHEMERIS_TYPE":0,"CLASSIFICATION_TYPE":"U","NORAD_CAT_ID":25509,"ELEMENT_SET_NO":999,"REV_AT_EPOCH":43145,"BSTAR":6.9265016e-5,"MEAN_MOTION_DOT":4.4e-6,"MEAN_MOTION_DDOT":0}]
